NORAD_CAT_ID,OBJECT_NAME,OBJECT_TYPE,EPOCH,MEAN_MOTION,ECCENTRICITY,INCLINATION,RA_OF_ASC_NODE,ARG_OF_PERICENTER,MEAN_ANOMALY,BSTAR,MEAN_MOTION_DOT,MEAN_MOTION_DDOT,TLE_LINE0,TLE_LINE1,TLE_LINE2,SEMIMAJOR_AXIS,PERIOD,APOGEE,PERIGEE,DECAYED
53922.0,STARLINK-5002,PAYLOAD,2023-02-18 16:55:29,15.08842138,0.0001336,53.2157,279.2221,95.6081,264.5063,9.4122e-05,1.21e-05,0.0,0 STARLINK-5002,1 53922U 22119AN  23049.70519822  .00001210  00000-0  94122-4 0  9994,2 53922  53.2157 279.2221 0001336  95.6081 264.5063 15.08842138 23082,6917.874,95.437,540.663,538.815,0.0
53922.0,STARLINK-5002,PAYLOAD,2023-02-19 10:24:46,15.08803486,0.0001579,53.2156,275.951,104.6957,255.4211,0.0016269,0.00025673,0.0,0 STARLINK-5002,1 53922U 22119AN  23050.43386774  .00025673  00000-0  16269-2 0  9997,2 53922  53.2156 275.9510 0001579 104.6957 255.4211 15.08803486 23196,6917.992,95.44,540.949,538.765,0.0
53922.0,STARLINK-5002,PAYLOAD,2023-02-19 19:57:02,15.0884441,0.0001399,53.2157,274.167,88.1121,272.0031,0.00030229,4.527e-05,0.0,0 STARLINK-5002,1 53922U 22119AN  23050.83127872  .00004527  00000-0  30229-3 0  9991,2 53922  53.2157 274.1670 0001399  88.1121 272.0031 15.08844410 23258,6917.867,95.437,540.7,538.764,0.0
53922.0,STARLINK-5002,PAYLOAD,2023-02-20 10:15:30,15.08848277,0.0001366,53.2156,271.4917,82.8234,277.2914,0.00016631,2.36e-05,0.0,0 STARLINK-5002,1 53922U 22119AN  23051.42743455  .00002360  00000-0  16631-3 0  9992,2 53922  53.2156 271.4917 0001366  82.8234 277.2914 15.08848277 23769,6917.855,95.437,540.665,538.775,0.0
53922.0,STARLINK-5002,PAYLOAD,2023-02-21 00:33:58,15.08850702,0.0001345,53.2154,268.8134,85.4058,274.7088,0.00011263,1.506e-05,0.0,0 STARLINK-5002,1 53922U 22119AN  23052.02358972  .00001506  00000-0  11263-3 0  9992,2 53922  53.2154 268.8134 0001345  85.4058 274.7088 15.08850702 23432,6917.848,95.437,540.643,538.782,0.0
53922.0,STARLINK-5002,PAYLOAD,2023-02-21 10:06:17,15.08839734,0.0001363,53.2149,267.0288,88.4462,271.6687,-4.37e-06,-3.57e-06,0.0,0 STARLINK-5002,1 53922U 22119AN  23052.42103379 -.00000357  00000-0 -43700-5 0  9993,2 53922  53.2149 267.0288 0001363  88.4462 271.6687 15.08839734 23498,6917.881,95.438,540.689,538.803,0.0
53922.0,STARLINK-5002,PAYLOAD,2023-02-21 21:13:59,15.08845706,0.000129,53.2163,264.9484,88.5169,271.5971,8.9464e-05,1.136e-05,0.0,0 STARLINK-5002,1 53922U 22119AN  23052.88471165  .00001136  00000-0  89464-4 0  9994,2 53922  53.2163 264.9484 0001290  88.5169 271.5971 15.08845706 23987,6917.863,95.437,540.62,538.836,0.0
53922.0,STARLINK-5002,PAYLOAD,2023-02-22 00:24:45,15.08850306,0.0001351,53.216,264.3529,88.4683,271.6464,0.00011295,1.511e-05,0.0,0 STARLINK-5002,1 53922U 22119AN  23053.01718771  .00001511  00000-0  11295-3 0  9990,2 53922  53.2160 264.3529 0001351  88.4683 271.6464 15.08850306 23582,6917.849,95.437,540.648,538.779,0.0
53922.0,STARLINK-5002,PAYLOAD,2023-02-22 16:18:37,15.08829983,0.0001434,53.2155,261.3783,93.6104,266.5052,-4.5137e-06,-3.6e-06,0.0,0 STARLINK-5002,1 53922U 22119AN  23053.67960347 -.00000360  00000-0 -45137-5 0  9997,2 53922  53.2155 261.3783 0001434  93.6104 266.5052 15.08829983 23687,6917.911,95.438,540.768,538.784,0.0
53922.0,STARLINK-5002,PAYLOAD,2023-02-23 01:50:56,15.08836062,0.0001317,53.2159,259.5952,90.937,269.1773,5.0995e-06,-2.07e-06,0.0,0 STARLINK-5002,1 53922U 22119AN  23054.07704063 -.00000207  00000-0  50995-5 0  9990,2 53922  53.2159 259.5952 0001317  90.9370 269.1773 15.08836062 23745,6917.892,95.438,540.669,538.846,0.0
53922.0,STARLINK-5002,PAYLOAD,2023-02-23 19:20:10,15.08844949,0.0001325,53.2152,256.3236,88.2185,271.8959,0.00016746,2.379e-05,0.0,0 STARLINK-5002,1 53922U 22119AN  23054.80567409  .00002379  00000-0  16746-3 0  9997,2 53922  53.2152 256.3236 0001325  88.2185 271.8959 15.08844949 23852,6917.865,95.437,540.647,538.814,0.0
53922.0,STARLINK-5002,PAYLOAD,2023-02-24 12:49:25,15.0883847,0.0001437,53.2163,253.051,105.7066,254.4085,0.00012237,1.66e-05,0.0,0 STARLINK-5002,1 53922U 22119AN  23055.53431845  .00001660  00000-0  12237-3 0  9995,2 53922  53.2163 253.0510 0001437 105.7066 254.4085 15.08838470 24388,6917.885,95.438,540.744,538.756,0.0
53922.0,STARLINK-5002,PAYLOAD,2023-02-24 19:10:57,15.08840006,0.0001368,53.2163,251.8629,83.3681,276.7467,0.00013464,1.856e-05,0.0,0 STARLINK-5002,1 53922U 22119AN  23055.79927845  .00001856  00000-0  13464-3 0  9993,2 53922  53.2163 251.8629 0001368  83.3681 276.7467 15.08840006 24000,6917.88,95.438,540.692,538.799,0.0
53922.0,STARLINK-5002,PAYLOAD,2023-02-25 12:40:12,15.08838842,0.0001397,53.2166,248.5918,81.5591,278.556,5.2778e-05,5.52e-06,0.0,0 STARLINK-5002,1 53922U 22119AN  23056.52792018  .00000552  00000-0  52778-4 0  9991,2 53922  53.2166 248.5918 0001397  81.5591 278.5560 15.08838842 24536,6917.884,95.438,540.715,538.783,0.0
53922.0,STARLINK-5002,PAYLOAD,2023-02-25 20:37:07,15.08846337,0.0001332,53.2173,247.1051,87.9947,272.1197,9.1785e-05,1.173e-05,0.0,0 STARLINK-5002,1 53922U 22119AN  23056.85911636  .00001173  00000-0  91785-4 0  9997,2 53922  53.2173 247.1051 0001332  87.9947 272.1197 15.08846337 24580,6917.861,95.437,540.647,538.805,0.0
53922.0,STARLINK-5002,PAYLOAD,2023-02-25 23:47:53,15.08847997,0.0001342,53.2174,246.5103,92.0774,268.0371,0.00011016,1.466e-05,0.0,0 STARLINK-5002,1 53922U 22119AN  23056.99159531  .00001466  00000-0  11016-3 0  9993,2 53922  53.2174 246.5103 0001342  92.0774 268.0371 15.08847997 24185,6917.856,95.437,540.649,538.793,0.0
53922.0,STARLINK-5002,PAYLOAD,2023-02-26 12:30:58,15.08846408,0.0001174,53.2168,244.1308,87.2947,272.818,0.00016456,2.333e-05,0.0,0 STARLINK-5002,1 53922U 22119AN  23057.52151598  .00002333  00000-0  16456-3 0  9995,2 53922  53.2168 244.1308 0001174  87.2947 272.8180 15.08846408 24682,6917.861,95.437,540.538,538.914,0.0
53922.0,STARLINK-5002,PAYLOAD,2023-02-26 20:27:54,15.08852737,0.0001193,53.217,242.6444,89.754,270.3589,0.000265,3.934e-05,0.0,0 STARLINK-5002,1 53922U 22119AN  23057.85271154  .00003934  00000-0  26500-3 0  9991,2 53922  53.2170 242.6444 0001193  89.7540 270.3589 15.08852737 24730,6917.841,95.437,540.532,538.881,0.0
53922.0,STARLINK-5002,PAYLOAD,2023-02-26 23:38:40,15.08857299,0.0001242,53.217,242.0496,87.6897,272.4237,0.00030399,4.556e-05,0.0,0 STARLINK-5002,1 53922U 22119AN  23057.98518902  .00004556  00000-0  30399-3 0  9992,2 53922  53.2170 242.0496 0001242  87.6897 272.4237 15.08857299 24751,6917.828,95.436,540.552,538.833,0.0
53922.0,STARLINK-5002,PAYLOAD,2023-02-27 18:43:18,15.08861212,0.0001246,53.2168,238.4816,93.9806,266.1329,0.00051705,7.955e-05,0.0,0 STARLINK-5002,1 53922U 22119AN  23058.78006959  .00007955  00000-0  51705-3 0  9995,2 53922  53.2168 238.4816 0001246  93.9806 266.1329 15.08861212 24456,6917.816,95.436,540.543,538.819,0.0
53922.0,STARLINK-5002,PAYLOAD,2023-02-27 21:54:04,15.08856037,0.0001262,53.2168,237.8863,94.1827,265.9309,0.0004562,6.983e-05,0.0,0 STARLINK-5002,1 53922U 22119AN  23058.91255019  .00006983  00000-0  45620-3 0  9992,2 53922  53.2168 237.8863 0001262  94.1827 265.9309 15.08856037 24897,6917.831,95.437,540.569,538.823,0.0
53922.0,STARLINK-5002,PAYLOAD,2023-02-28 12:12:33,15.08821302,0.0001417,53.2166,235.2106,100.7309,259.3843,-0.00034659,-5.797e-05,0.0,0 STARLINK-5002,1 53922U 22119AN  23059.50872108 -.00005797  00000-0 -34659-3 0  9996,2 53922  53.2166 235.2106 0001417 100.7309 259.3843 15.08821302 24569,6917.938,95.439,540.783,538.822,0.0
53922.0,STARLINK-5002,PAYLOAD,2023-02-28 20:09:29,15.08823603,0.0001252,53.2175,233.7242,83.6684,276.4451,-0.00011426,-2.105e-05,0.0,0 STARLINK-5002,1 53922U 22119AN  23059.83992560 -.00002105  00000-0 -11426-3 0  9994,2 53922  53.2175 233.7242 0001252  83.6684 276.4451 15.08823603 25039,6917.931,95.439,540.662,538.929,0.0
53922.0,STARLINK-5002,PAYLOAD,2023-03-01 10:27:58,15.08836773,0.0001263,53.2174,231.0479,77.9866,282.1268,0.00060181,9.302e-05,0.0,0 STARLINK-5002,1 53922U 22119AN  23060.43609037  .00009302  00000-0  60181-3 0  9992,2 53922  53.2174 231.0479 0001263  77.9866 282.1268 15.08836773 24706,6917.89,95.438,540.629,538.882,0.0
53922.0,STARLINK-5002,PAYLOAD,2023-03-01 18:24:53,15.08850205,0.0001091,53.2168,229.5613,78.6145,281.497,0.00090899,0.00014212,0.0,0 STARLINK-5002,1 53922U 22119AN  23060.76728835  .00014212  00000-0  90899-3 0  9991,2 53922  53.2168 229.5613 0001091  78.6145 281.4970 15.08850205 25178,6917.849,95.437,540.469,538.959,0.0
53922.0,STARLINK-5002,PAYLOAD,2023-03-01 21:35:39,15.08857801,0.000112,53.2169,228.9667,78.6176,281.4942,0.001031,0.00016166,0.0,0 STARLINK-5002,1 53922U 22119AN  23060.89976651  .00016166  00000-0  10310-2 0  9995,2 53922  53.2169 228.9667 0001120  78.6176 281.4942 15.08857801 24771,6917.826,95.436,540.466,538.916,0.0
53922.0,STARLINK-5002,PAYLOAD,2023-03-02 19:51:03,15.08854182,0.0001286,53.2165,224.8036,79.8666,280.2471,0.00064504,9.997e-05,0.0,0 STARLINK-5002,1 53922U 22119AN  23061.82712606  .00009997  00000-0  64504-3 0  9996,2 53922  53.2165 224.8036 0001286  79.8666 280.2471 15.08854182 24911,6917.837,95.437,540.592,538.812,0.0
53922.0,STARLINK-5002,PAYLOAD,2023-03-03 10:09:31,15.08856134,9.9e-05,53.2161,222.1272,89.4775,270.633,0.0011475,0.0001803,0.0,0 STARLINK-5002,1 53922U 22119AN  23062.42328430  .00018030  00000-0  11475-2 0  9997,2 53922  53.2161 222.1272 0000990  89.4775 270.6330 15.08856134 25006,6917.831,95.437,540.381,539.011,0.0
53922.0,STARLINK-5002,PAYLOAD,2023-03-04 03:38:45,15.088402,4.03e-05,53.2192,218.8541,200.6205,159.4771,-7.1493e-05,-1.425e-05,0.0,0 STARLINK-5002,1 53922U 22119AN  23063.15191148 -.00001425  00000-0 -71493-4 0  9992,2 53922  53.2192 218.8541 0000403 200.6205 159.4771 15.08840200 25117,6917.88,95.438,540.024,539.466,0.0
53922.0,STARLINK-5002,PAYLOAD,2023-03-04 10:00:18,15.08823446,0.0001398,53.2154,217.6666,90.8853,269.2299,0.0014047,0.00022128,0.0,0 STARLINK-5002,1 53922U 22119AN  23063.41688255  .00022128  00000-0  14047-2 0  9992,2 53922  53.2154 217.6666 0001398  90.8853 269.2299 15.08823446 25154,6917.931,95.439,540.763,538.829,0.0
